STARLINK-36772          
1 67721U 26026A   26062.50001156 -.01837785  00000+0 -15948-1 0  9991
2 67721  97.2842 116.8549 0001505  71.7577 349.9455 15.72295657  4312
STARLINK-36796          
1 67722U 26026B   26062.50001156 -.01838979  00000+0 -16561-1 0  9990
2 67722  97.2841 116.8554 0001531  76.8849 345.8699 15.71425233  4314
STARLINK-36369          
1 67723U 26026C   26062.50001156 -.01841083  00000+0 -16301-1 0  9993
2 67723  97.2839 116.8593 0001580  71.2652   0.4676 15.71828826  4314
STARLINK-36752          
1 67724U 26026D   26062.50001156 -.01844700  00000+0 -15458-1 0  9995
2 67724  97.2839 116.8668 0001631  74.6897  13.8605 15.73123117  4316
STARLINK-36754          
1 67725U 26026E   26062.50001156 -.01838592  00000+0 -17190-1 0  9993
2 67725  97.2840 116.8608 0001587  72.8110   1.9919 15.70535069  4317
STARLINK-36755          
1 67726U 26026F   26062.50001156 -.01833819  00000+0 -18977-1 0  9995
2 67726  97.2840 116.8538 0001482  75.0841 343.3795 15.68084521  4314
STARLINK-36741          
1 67727U 26026G   26062.50001156 -.01834892  00000+0 -18127-1 0  9995
2 67727  97.2840 116.8609 0001552  73.9124   1.1601 15.69209123  4316
STARLINK-36757          
1 67728U 26026H   26062.50001156 -.01849971  00000+0 -15136-1 0  9997
2 67728  97.2839 116.8783 0001640  72.4571  45.1476 15.73687152  4311
STARLINK-36751          
1 67729U 26026J   26062.50001156 -.01846605  00000+0 -14740-1 0  9999
2 67729  97.2842 116.8855 0001753  73.7419  61.2636 15.74249628  4316
STARLINK-36747          
1 67730U 26026K   26062.50001156 -.01847778  00000+0 -14814-1 0  9995
2 67730  97.2836 116.8820 0001719  75.0210  50.8685 15.74150912  4314
STARLINK-36315          
1 67731U 26026L   26062.50001156 -.01850301  00000+0 -14660-1 0  9991
2 67731  97.2840 116.8883 0001668  84.0623  57.3961 15.74428845  4312
STARLINK-36260          
1 67732U 26026M   26062.50001156 -.01851367  00000+0 -14428-1 0  9997
2 67732  97.2840 116.8920 0001737  78.1400  72.0557 15.74809565  4316
